{"type": "FeatureCollection", "features": [ {"type": "Feature", "properties": {"norad_id": 41335, "name": "SENTINEL-3A", "group": "resource", "lat": -63.762175319022184, "lon": -156.49601841681536, "alt_km": 810.4826640877727, "timestamp": "2025-12-02T06:27:52.678424+00:00", "meta": {"OBJECT_NAME": "SENTINEL-3A", "OBJECT_ID": "2016-011A", "EPOCH": "2025-12-01T19:13:14.850912", "MEAN_MOTION": 14.26739581, "ECCENTRICITY": 0.0001006, "INCLINATION": 98.6222, "RA_OF_ASC_NODE": 40.9717, "ARG_OF_PERICENTER": 91.0384, "MEAN_ANOMALY": 269.0911, "EPHEMERIS_TYPE": 0, "CLASSIFICATION_TYPE": "U", "NORAD_CAT_ID": 41335, "ELEMENT_SET_NO": 999, "REV_AT_EPOCH": 50991, "BSTAR": 8.3246e-05, "MEAN_MOTION_DOT": 1.58e-06, "MEAN_MOTION_DDOT": 0}, "tle": {"line1": "1 41335U 16011A   25335.80086633  .00000158  00000+0  83246-4 0  9997", "line2": "2 41335  98.6222  40.9717 0001006  91.0384 269.0911 14.26739581509915"}}, "geometry": {"type": "Point", "coordinates": [-156.49601841681536, -63.762175319022184]}}, {"type": "Feature", "properties": {"norad_id": 41556, "name": "ZIYUAN 3-2 (ZY 3-2)", "group": "resource", "lat": 35.08482744105865, "lon": 45.3664555212141, "alt_km": 502.02593262539176, "timestamp": "2025-12-02T06:27:52.678434+00:00", "meta": {"OBJECT_NAME": "ZIYUAN 3-2 (ZY 3-2)", "OBJECT_ID": "2016-033A", "EPOCH": "2025-12-01T20:50:15.091872", "MEAN_MOTION": 15.21253856, "ECCENTRICITY": 0.0012452, "INCLINATION": 97.4062, "RA_OF_ASC_NODE": 50.2143, "ARG_OF_PERICENTER": 291.6307, "MEAN_ANOMALY": 68.3602, "EPHEMERIS_TYPE": 0, "CLASSIFICATION_TYPE": "U", "NORAD_CAT_ID": 41556, "ELEMENT_SET_NO": 999, "REV_AT_EPOCH": 52798, "BSTAR": 0.00034151, "MEAN_MOTION_DOT": 7.577e-05, "MEAN_MOTION_DDOT": 0}, "tle": {"line1": "1 41556U 16033A   25335.86823023  .00007577  00000+0  34151-3 0  9996", "line2": "2 41556  97.4062  50.2143 0012452 291.6307  68.3602 15.21253856527982"}}, "geometry": {"type": "Point", "coordinates": [45.3664555212141, 35.08482744105865]}}, {"type": "Feature", "properties": {"norad_id": 41599, "name": "CARTOSAT-2C", "group": "resource", "lat": 59.731488529303554, "lon": 20.61976784644187, "alt_km": 496.0651691601188, "timestamp": "2025-12-02T06:27:52.678444+00:00", "meta": {"OBJECT_NAME": "CARTOSAT-2C", "OBJECT_ID": "2016-040A", "EPOCH": "2025-12-01T23:52:35.623200", "MEAN_MOTION": 15.19342676, "ECCENTRICITY": 0.0011405, "INCLINATION": 97.4783, "RA_OF_ASC_NODE": 33.3554, "ARG_OF_PERICENTER": 101.7919, "MEAN_ANOMALY": 258.4595, "EPHEMERIS_TYPE": 0, "CLASSIFICATION_TYPE": "U", "NORAD_CAT_ID": 41599, "ELEMENT_SET_NO": 999, "REV_AT_EPOCH": 52377, "BSTAR": 2.8675e-05, "MEAN_MOTION_DOT": 5.38e-06, "MEAN_MOTION_DDOT": 0}, "tle": {"line1": "1 41599U 16040A   25335.99485675  .00000538  00000+0  28675-4 0  9997", "line2": "2 41599  97.4783  33.3554 0011405 101.7919 258.4595 15.19342676523776"}}, "geometry": {"type": "Point", "coordinates": [20.61976784644187, 59.731488529303554]}}, {"type": "Feature", "properties": {"norad_id": 41601, "name": "SKYSAT-C1", "group": "resource", "lat": -21.355192738131148, "lon": 16.623144368385532, "alt_km": 473.29644863811063, "timestamp": "2025-12-02T06:27:52.678456+00:00", "meta": {"OBJECT_NAME": "SKYSAT-C1", "OBJECT_ID": "2016-040C", "EPOCH": "2025-12-01T14:53:06.677088", "MEAN_MOTION": 15.32276272, "ECCENTRICITY": 0.00034613, "INCLINATION": 96.9846, "RA_OF_ASC_NODE": 13.2631, "ARG_OF_PERICENTER": 43.1276, "MEAN_ANOMALY": 317.0238, "EPHEMERIS_TYPE": 0, "CLASSIFICATION_TYPE": "U", "NORAD_CAT_ID": 41601, "ELEMENT_SET_NO": 999, "REV_AT_EPOCH": 52757, "BSTAR": 0.00030190486, "MEAN_MOTION_DOT": 9.34e-05, "MEAN_MOTION_DDOT": 0}, "tle": {"line1": "1 41601U 16040C   25335.62021617  .00009340  00000+0  30190-3 0  9997", "line2": "2 41601  96.9846  13.2631 0003461  43.1276 317.0238 15.32276272527576"}}, "geometry": {"type": "Point", "coordinates": [16.623144368385532, -21.355192738131148]}}, {"type": "Feature", "properties": {"norad_id": 41603, "name": "LAPAN-A3", "group": "resource", "lat": 21.387925442079215, "lon": 157.02347306042242, "alt_km": 477.81851454524167, "timestamp": "2025-12-02T06:27:52.678466+00:00", "meta": {"OBJECT_NAME": "LAPAN-A3", "OBJECT_ID": "2016-040E", "EPOCH": "2025-12-01T20:22:00.388704", "MEAN_MOTION": 15.31416994, "ECCENTRICITY": 0.001104, "INCLINATION": 97.1425, "RA_OF_ASC_NODE": 333.803, "ARG_OF_PERICENTER": 13.5678, "MEAN_ANOMALY": 346.5859, "EPHEMERIS_TYPE": 0, "CLASSIFICATION_TYPE": "U", "NORAD_CAT_ID": 41603, "ELEMENT_SET_NO": 999, "REV_AT_EPOCH": 52459, "BSTAR": 0.00014729, "MEAN_MOTION_DOT": 4.402e-05, "MEAN_MOTION_DDOT": 0}, "tle": {"line1": "1 41603U 16040E   25335.84861561  .00004402  00000+0  14729-3 0  9997", "line2": "2 41603  97.1425 333.8030 0011040  13.5678 346.5859 15.31416994524598"}}, "geometry": {"type": "Point", "coordinates": [157.02347306042242, 21.387925442079215]}}, {"type": "Feature", "properties": {"norad_id": 41604, "name": "BIROS", "group": "resource", "lat": 31.450598748825026, "lon": 2.9616511591044197, "alt_km": 314.7718268899225, "timestamp": "2025-12-02T06:27:52.678477+00:00", "meta": {"OBJECT_NAME": "BIROS", "OBJECT_ID": "2016-040F", "EPOCH": "2025-12-01T19:43:38.252064", "MEAN_MOTION": 15.85336326, "ECCENTRICITY": 0.0002494, "INCLINATION": 97.071, "RA_OF_ASC_NODE": 6.8532, "ARG_OF_PERICENTER": 176.3323, "MEAN_ANOMALY": 183.7967, "EPHEMERIS_TYPE": 0, "CLASSIFICATION_TYPE": "U", "NORAD_CAT_ID": 41604, "ELEMENT_SET_NO": 999, "REV_AT_EPOCH": 52699, "BSTAR": 0.00061373, "MEAN_MOTION_DOT": 0.0014751, "MEAN_MOTION_DDOT": 0}, "tle": {"line1": "1 41604U 16040F   25335.82197051  .00147510  00000+0  61373-3 0  9997", "line2": "2 41604  97.0710   6.8532 0002494 176.3323 183.7967 15.85336326526993"}}, "geometry": {"type": "Point", "coordinates": [2.9616511591044197, 31.450598748825026]}}, {"type": "Feature", "properties": {"norad_id": 41727, "name": "GAOFEN-3", "group": "resource", "lat": 53.75206365570263, "lon": -29.617754235390123, "alt_km": 745.0273304565026, "timestamp": "2025-12-02T06:27:52.678487+00:00", "meta": {"OBJECT_NAME": "GAOFEN-3", "OBJECT_ID": "2016-049A", "EPOCH": "2025-12-01T20:13:19.299072", "MEAN_MOTION": 14.42230285, "ECCENTRICITY": 0.0001543, "INCLINATION": 98.4042, "RA_OF_ASC_NODE": 341.5949, "ARG_OF_PERICENTER": 76.9974, "MEAN_ANOMALY": 283.1388, "EPHEMERIS_TYPE": 0, "CLASSIFICATION_TYPE": "U", "NORAD_CAT_ID": 41727, "ELEMENT_SET_NO": 999, "REV_AT_EPOCH": 49020, "BSTAR": 4.479e-05, "MEAN_MOTION_DOT": 1.04e-06, "MEAN_MOTION_DDOT": 0}, "tle": {"line1": "1 41727U 16049A   25335.84258448  .00000104  00000+0  44790-4 0  9994", "line2": "2 41727  98.4042 341.5949 0001543  76.9974 283.1388 14.42230285490209"}}, "geometry": {"type": "Point", "coordinates": [-29.617754235390123, 53.75206365570263]}}, {"type": "Feature", "properties": {"norad_id": 41771, "name": "SKYSAT-C4", "group": "resource", "lat": -82.28281752974142, "lon": 65.96966460453449, "alt_km": 448.66324064992205, "timestamp": "2025-12-02T06:27:52.678497+00:00", "meta": {"OBJECT_NAME": "SKYSAT-C4", "OBJECT_ID": "2016-058B", "EPOCH": "2025-12-01T15:15:47.819232", "MEAN_MOTION": 15.41767486, "ECCENTRICITY": 6.546e-05, "INCLINATION": 96.9393, "RA_OF_ASC_NODE": 1.3676, "ARG_OF_PERICENTER": 104.6546, "MEAN_ANOMALY": 255.4775, "EPHEMERIS_TYPE": 0, "CLASSIFICATION_TYPE": "U", "NORAD_CAT_ID": 41771, "ELEMENT_SET_NO": 999, "REV_AT_EPOCH": 51496, "BSTAR": 0.00035718265, "MEAN_MOTION_DOT": 0.00015039, "MEAN_MOTION_DDOT": 0}, "tle": {"line1": "1 41771U 16058B   25335.63597013  .00015039  00000+0  35718-3 0  9996", "line2": "2 41771  96.9393   1.3676 0000654 104.6546 255.4775 15.41767486514964"}}, "geometry": {"type": "Point", "coordinates": [65.96966460453449, -82.28281752974142]}}, {"type": "Feature", "properties": {"norad_id": 41772, "name": "SKYSAT-C5", "group": "resource", "lat": 77.13469090273533, "lon": -12.524270094291902, "alt_km": 451.14886651382494, "timestamp": "2025-12-02T06:27:52.678507+00:00", "meta": {"OBJECT_NAME": "SKYSAT-C5", "OBJECT_ID": "2016-058C", "EPOCH": "2025-12-01T16:02:35.821824", "MEAN_MOTION": 15.35327591, "ECCENTRICITY": 0.0002677, "INCLINATION": 97.0785, "RA_OF_ASC_NODE": 19.86, "ARG_OF_PERICENTER": 122.1741, "MEAN_ANOMALY": 237.9763, "EPHEMERIS_TYPE": 0, "CLASSIFICATION_TYPE": "U", "NORAD_CAT_ID": 41772, "ELEMENT_SET_NO": 999, "REV_AT_EPOCH": 51346, "BSTAR": 0.0014882, "MEAN_MOTION_DOT": 0.00051265, "MEAN_MOTION_DDOT": 0}, "tle": {"line1": "1 41772U 16058C   25335.66847016  .00051265  00000+0  14882-2 0  9990", "line2": "2 41772  97.0785  19.8600 0002677 122.1741 237.9763 15.35327591513460"}}, "geometry": {"type": "Point", "coordinates": [-12.524270094291902, 77.13469090273533]}}, {"type": "Feature", "properties": {"norad_id": 41773, "name": "SKYSAT-C2", "group": "resource", "lat": 23.335149309308715, "lon": -1.812026251454099, "alt_km": 452.09849340856636, "timestamp": "2025-12-02T06:27:52.678517+00:00", "meta": {"OBJECT_NAME": "SKYSAT-C2", "OBJECT_ID": "2016-058D", "EPOCH": "2025-12-01T19:25:27.832224", "MEAN_MOTION": 15.36891368, "ECCENTRICITY": 0.0005146, "INCLINATION": 97.0378, "RA_OF_ASC_NODE": 0.8026, "ARG_OF_PERICENTER": 61.7205, "MEAN_ANOMALY": 298.4559, "EPHEMERIS_TYPE": 0, "CLASSIFICATION_TYPE": "U", "NORAD_CAT_ID": 41773, "ELEMENT_SET_NO": 999, "REV_AT_EPOCH": 51468, "BSTAR": 0.00034275, "MEAN_MOTION_DOT": 0.00012296, "MEAN_MOTION_DDOT": 0}, "tle": {"line1": "1 41773U 16058D   25335.80934991  .00012296  00000+0  34275-3 0  9996", "line2": "2 41773  97.0378   0.8026 0005146  61.7205 298.4559 15.36891368514687"}}, "geometry": {"type": "Point", "coordinates": [-1.812026251454099, 23.335149309308715]}}]}